STARLINK-30580          
1 58115U 23161U   26068.55240140 -.00002675  00000+0 -78229-4 0  9999
2 58115  53.1604 165.9333 0001386  87.8627 272.2532 15.30197147134398
NUSAT-48 (HENRIETTA LE*)
1 60498U 24149AG  26068.80506098  .00012988  00000+0  45212-3 0  9999
2 60498  97.3923 150.8264 0002754 263.3026  96.7901 15.29812597 86946
